GMID,Dataset,Facility Name,Address,數據集,設施名稱,地址,District,地區,Facility Type,設施種類,Opening Hours,開放時間,Telephone,聯絡電話,Fax Number,傳真號碼,Email Address,電郵地址,Website,網頁,Northing,Easting,Latitude,Longitude,Last Update
"HxiWNNWV1l","Sports Centres","Cheung Fat Sports Centre","4/F, Cheung Fat Plaza, Cheung Fat Estate, Tsing Yi","體育館","長發體育館","青衣長發邨長發廣場四樓","KWAI TSING","葵青","BASKETBALL COURTS,VOLLEYBALL COURTS,BADMINTON COURTS,SQUASH COURTS,TABLE TENNIS TABLES,ACTIVITY ROOMS,FITNESS ROOMS","籃球場,排球場,羽毛球場,壁球場,乒乓球檯,活動室,健身室","N.A.","N.A.","N.A.","N.A.","N.A.","N.A.","N.A.","N.A.","http://www.lcsd.gov.hk/en/facilities/facilitieslist/landsports/sportcentre.html","http://www.lcsd.gov.hk/tc/facilities/facilitieslist/landsports/sportcentre.html","824815.0","828627.0","22.36243202","114.10305726","2021-02-19 07:55:52"
"ExLfbnP6ic","Sports Centres","Che Kung Temple Sports Centre","No. 10, Sha Tin Tau Road, Sha Tin","體育館","車公廟體育館","沙田沙田頭路10號","SHA TIN","沙田","ACTIVITY ROOMS,BADMINTON COURTS,BASKETBALL COURTS,CHILDREN'S PLAY ROOMS,DANCE ROOMS,FITNESS ROOMS,TABLE TENNIS TABLES,VOLLEYBALL COURTS","活動室,羽毛球場,籃球場,兒童遊戲室,舞蹈室,健身室,乒乓球檯,排球場","0700 - 2300 hrs","早上七時至晚上11時","2790 0221","2790 0221","2790 0238","2790 0238","cktsc@lcsd.gov.hk","cktsc@lcsd.gov.hk","N.A.","N.A.","825894.0","837164.0","22.37222827","114.18557397","2020-07-06 04:20:00"
"uyoeQh3vef","Sports Centres","Siu Lun Sports Centre","2-5/F Tuen Mun Siu Lun Government Complex, 19 Siu Lun Street, Tuen Mun, N.T.","體育館","兆麟體育館","新界屯門兆麟街19號屯門兆麟政府綜合大樓2至5樓","TUEN MUN","屯門","ACTIVITY ROOMS,BADMINTON COURTS,BASKETBALL COURTS,CHILDREN'S PLAY ROOMS,FITNESS ROOMS,HANDBALL COURTS,SPORTS CLIMBING FACILITIES,TABLE TENNIS TABLES,VOLLEYBALL COURTS","活動室,羽毛球場,籃球場,兒童遊戲室,健身室,手球場,運動攀登設施,乒乓球檯,排球場","7am to 11pm daily (except maintenance days)","每日上午7時至晚上11時 (定期保養日除外)","2659 2311","2659 2311","2659 2411","2659 2411","slsc@lcsd.gov.hk","slsc@lcsd.gov.hk","https://www.lcsd.gov.hk/en/facilities/facilitieslist/landsports/sportcentre.html","https://www.lcsd.gov.hk/tc/facilities/facilitieslist/landsports/sportcentre.html","827239.0","815911.0","22.38425395","113.97919879","2020-06-29 03:02:41"
"BzPifUxKW8","Sports Centres","Hong Kong Park Sports Centre","29 Cotton Tree Drive, Central","體育館","香港公園體育館","中環紅棉路29號","CENTRAL AND WESTERN","中西區","BADMINTON COURTS,BASKETBALL COURTS,DANCE ROOMS,FITNESS ROOMS,INDOOR JOGGING TRACKS,NETBALL COURTS,TABLE TENNIS TABLES,VOLLEYBALL COURTS","羽毛球場,籃球場,舞蹈室,健身室,室內緩跑徑,投球場,乒乓球檯,排球場","N.A.","N.A.","N.A.","N.A.","N.A.","N.A.","N.A.","N.A.","http://www.lcsd.gov.hk/en/facilities/facilitieslist/landsports/sportcentre.html","http://www.lcsd.gov.hk/tc/facilities/facilitieslist/landsports/sportcentre.html","815387.0","834456.0","22.27734356","114.15929239","2018-12-03 06:39:08"
"uKWfLywRHi","Sports Centres","Tsuen Wan Sports Centre","53 Wing Shun Street, Tsuen Wan, N.T.","體育館","荃灣體育館","荃灣永順街53號","TSUEN WAN","荃灣","ACTIVITY ROOMS,BADMINTON COURTS,BASKETBALL COURTS,CHILDREN'S PLAY ROOMS,DANCE ROOMS,FITNESS ROOMS,SPECTATOR STANDS,SPORTS CENTRES,SPORTS CLIMBING FACILITIES,TABLE TENNIS TABLES,VOLLEYBALL COURTS","活動室,羽毛球場,籃球場,兒童遊戲室,舞蹈室,健身室,觀眾席看台,體育館,運動攀登設施,乒乓球檯,排球場","7 am to 11 pm daily (except maintenance day)","每日上午7時至晚上11時 (定期保養日除外)","23929570","23929570","24049055","24049055","tsuenwansc@lcsd.gov.hk","tsuenwansc@lcsd.gov.hk","https://www.lcsd.gov.hk/tc/facilities/facilitieslist.html","https://www.lcsd.gov.hk/tc/facilities/facilitieslist.html","825200.0","829651.0","22.3659553","114.11263643","2018-12-03 04:21:00"
"RPCYeFHeZa","Sports Centres","Shek Tong Tsui Sports Centre","5/F Shek Tong Tsui Municipal Services Building, 470 Queen's Road West","體育館","石瑭咀體育館","皇后大道西470號石瑭咀市政大廈5樓","CENTRAL AND WESTERN","中西區","BASKETBALL COURTS,VOLLEYBALL COURTS,BADMINTON COURTS,SQUASH COURTS,TABLE TENNIS TABLES,ACTIVITY ROOMS,FITNESS ROOMS,DANCE ROOMS,CHILDREN'S PLAY ROOMS","籃球場,排球場,羽毛球場,壁球場,乒乓球檯,活動室,健身室,舞蹈室,兒童遊戲室","N.A.","N.A.","N.A.","N.A.","N.A.","N.A.","N.A.","N.A.","http://www.lcsd.gov.hk/en/facilities/facilitieslist/landsports/sportcentre.html","http://www.lcsd.gov.hk/tc/facilities/facilitieslist/landsports/sportcentre.html","816315.0","832061.0","22.28571982","114.13605113","2018-12-03 03:54:03"
"GMT9taCJKG","Sports Centres","Sheung Wan Sports Centre","11/F Sheung Wan Municipal Services Building, 345 Queen's Road Central","體育館","上環體育館","上環皇后大道中345號上環市政大廈11樓","CENTRAL AND WESTERN","中西區","BASKETBALL COURTS,VOLLEYBALL COURTS,BADMINTON COURTS,SQUASH COURTS,TABLE TENNIS TABLES,ACTIVITY ROOMS,FITNESS ROOMS,DANCE ROOMS","籃球場,排球場,羽毛球場,壁球場,乒乓球檯,活動室,健身室,舞蹈室","N.A.","N.A.","N.A.","N.A.","N.A.","N.A.","N.A.","N.A.","http://www.lcsd.gov.hk/en/facilities/facilitieslist/landsports/sportcentre.html","http://www.lcsd.gov.hk/tc/facilities/facilitieslist/landsports/sportcentre.html","816346.0","833460.0","22.28600261","114.14962647","2018-12-03 03:54:03"
"vx49I0ELOm","Sports Centres","Sun Yat Sen Memorial Park Sports Centre","18 Eastern Street North, Sai Ying Pun","體育館","中山紀念公園體育館","西營盤東邊街北18號","CENTRAL AND WESTERN","中西區","BASKETBALL COURTS,VOLLEYBALL COURTS,NETBALL COURTS,BADMINTON COURTS,HANDBALL COURTS,FITNESS ROOMS,DANCE ROOMS,SQUASH COURTS,ACTIVITY ROOMS, TABLE TENNIS TABLES, CHILDREN'S PLAY ROOMS","籃球場,排球場,投球場,羽毛球場,手球場,健身室,舞蹈室,壁球場,活動室,乒乓球檯,兒童遊戲室","N.A.","N.A.","N.A.","N.A.","N.A.","N.A.","N.A.","N.A.","http://www.lcsd.gov.hk/en/facilities/facilitieslist/landsports/sportcentre.html","http://www.lcsd.gov.hk/tc/facilities/facilitieslist/landsports/sportcentre.html","816808.0","832828.0","22.29017362","114.14349277","2018-12-03 03:54:02"
"GmqL1kydga","Sports Centres","Smithfield Sports Centre","4/F, Smithfield Municipal Services Building, 12K Smithfield Road, Kennedy Town, Western","體育館","士美非路體育館","西區士美非路12K士美非路市政大廈4樓","CENTRAL AND WESTERN","中西區","BASKETBALL COURTS,VOLLEYBALL COURTS,BADMINTON COURTS,FITNESS ROOMS,DANCE ROOMS,ACTIVITY ROOMS,TABLE TENNIS TABLES,SQUASH COURTS,AMERICAN POOL TABLES,CHILDREN'S PLAY ROOMS","籃球場,排球場,羽毛球場,健身室,舞蹈室,活動室,乒乓球檯,壁球場,美式桌球檯,兒童遊戲室","N.A.","N.A.","N.A.","N.A.","N.A.","N.A.","N.A.","N.A.","http://www.lcsd.gov.hk/en/facilities/facilitieslist/landsports/sportcentre.html","http://www.lcsd.gov.hk/tc/facilities/facilitieslist/landsports/sportcentre.html","815897.0","831297.0","22.28194298","114.12863884","2018-12-03 03:54:02"
"4w24kA9ZGA","Sports Centres","Tiu Keng Leng Sports Centre","2 Chui Ling Road, Tseung Kwan O","體育館","調景嶺體育館","將軍澳翠嶺路2號","SAI KUNG","西貢","SPORTS CENTRES","體育館","7am-11pm daily (except maintenance day)","每日上午7時至晚上11時(定期保養日除外)","2481 5033","2481 5033","2481 5867","2481 5867","tklsc@lcsd.gov.hk","tklsc@lcsd.gov.hk","http://www.lcsd.gov.hk/en/facilities/facilitieslist/facilities.php?ftid=0&did=8","http://www.lcsd.gov.hk/tc/facilities/facilitieslist/facilities.php?ftid=0&did=8","818595.0","844280.0","22.30629971","114.25463131","2018-10-19 09:15:26"
"GkGGfEvTGQ","Sports Centres","Long Ping Sports Centre","Unit 202, 2/F, Long Ping Commercial Centre, Long Ping Estate, Yuen Long","體育館","朗屏體育館","元朗朗屏邨朗屏商場二樓202號","YUEN LONG","元朗","BASKETBALL COURTS,VOLLEYBALL COURTS,BADMINTON COURTS,SQUASH COURTS,TABLE TENNIS TABLES,ACTIVITY ROOMS,FITNESS ROOMS","籃球場,排球場,羽毛球場,壁球場,乒乓球檯,活動室,健身室","N.A.","N.A.","N.A.","N.A.","N.A.","N.A.","N.A.","N.A.","http://www.lcsd.gov.hk/en/facilities/facilitieslist/landsports/sportcentre.html","http://www.lcsd.gov.hk/tc/facilities/facilitieslist/landsports/sportcentre.html","834547.0","820449.0","22.45029662","114.0231921","2018-10-09 08:55:59"
"HqrSUV6WOM","Sports Centres","Yuen Long Sports Centre","3/F, Yuen Long Leisure and Cultural Building, 52 Ma Tin Road, Yuen Long","體育館","元朗體育館","元朗馬田路52號元朗文化康樂大樓3樓","YUEN LONG","元朗","BADMINTON COURTS,ACTIVITY ROOMS,BASKETBALL COURTS,VOLLEYBALL COURTS,FITNESS ROOMS,TABLE TENNIS TABLES,CHILDREN'S PLAY ROOMS","羽毛球場,活動室,籃球場,排球場,健身室,乒乓球檯,兒童遊戲室","0700hr – 2300hr","每日上午7時至晚上11時<br/><br/>(定期保養日除外)","2891 9207","2891 9207","2891 9021","2891 9021","ylsc@lcsd.gov.hk","ylsc@lcsd.gov.hk","http://www.lcsd.gov.hk/en/facilities/facilitieslist/facilities.php?ftid=0&did=18","http://www.lcsd.gov.hk/tc/facilities/facilitieslist/facilities.php?ftid=0&did=18","833569.0","820517.0","22.4414664","114.02386434","2017-08-16 06:46:46"
"ynd05jJTiK","Sports Centres","Yuen Chau Kok Sports Centre","35 Ngan Shing Street, Sha Tin, NT.","體育館","圓洲角體育館","新界沙田銀城街35號","SHA TIN","沙田","SPORTS CENTRES","體育館","7 am to 11 pm daily","每日上午7時至晚上11時","2509 9108","2509 9108","2509 9457","2509 9457","ycksc@lcsd.gov.hk","ycksc@lcsd.gov.hk","http://www.lcsd.gov.hk/en/facilities/facilitieslist/facilities.php?ftid=0&did=10#1312","http://www.lcsd.gov.hk/tc/facilities/facilitieslist/facilities.php?ftid=0&did=10#1312","826726.0","839112.0","22.37973994","114.20452888","2017-08-16 06:45:58"
"t37zFVeYqt","Sports Centres","Tsing Yi Southwest Sports Centre","70 Chung Mei Road, Tsing Yi, New,Territories","體育館","青衣西南體育館","青衣涌美路70 號","KWAI TSING","葵青","BADMINTON COURTS,BASKETBALL COURTS,VOLLEYBALL COURTS,TABLE TENNIS TABLES,CHILDREN'S PLAY ROOMS,SPORTS CLIMBING FACILITIES,DANCE ROOMS","羽毛球場,籃球場,排球場,乒乓球檯,兒童遊戲室,運動攀登設施,舞蹈室","7 am to 11 pm daily (except maintenance day)","每日上午7時至晚上11時（定期保養日除外）","2341 0102","2341 0102","2341 0761","2341 0761","tyswsc@lcsd.gov.hk","tyswsc@lcsd.gov.hk","http://www.lcsd.gov.hk/en/facilities/facilitieslist/facilities.php?ftid=0&did=5#1448","http://www.lcsd.gov.hk/tc/facilities/facilitieslist/facilities.php?ftid=0&did=5#1448","823605.0","828562.0","22.35154434","114.10206693","2017-07-13 06:41:06"
"g4IruLFo98","Sports Centres","Harbour Road Sports Centre","27 Harbour Road, Wanchai","體育館","港灣道體育館","灣仔港灣道27號","WAN CHAI","灣仔","BASKETBALL COURTS,VOLLEYBALL COURTS,BADMINTON COURTS,SQUASH COURTS,TABLE TENNIS TABLES,ACTIVITY ROOMS,DANCE ROOMS","籃球場,排球場,羽毛球場,壁球場,乒乓球檯,活動室,舞蹈室","N.A.","N.A.","N.A.","N.A.","N.A.","N.A.","N.A.","N.A.","http://www.lcsd.gov.hk/en/facilities/facilitieslist/landsports/sportcentre.html","http://www.lcsd.gov.hk/tc/facilities/facilitieslist/landsports/sportcentre.html","815822.0","836250.0","22.28121865","114.17678702","2017-06-05 07:31:35"
"MfzSmEq1q4","Sports Centres","Tsuen King Circuit Sports Centre","38 Mei Wan Street, Tsuen King Circuit, Tsuen Wan","體育館","荃景圍體育館","荃灣荃景圍美環街38號","TSUEN WAN","荃灣","BASKETBALL COURTS,VOLLEYBALL COURTS,BADMINTON COURTS,SQUASH COURTS,ACTIVITY ROOMS","籃球場,排球場,羽毛球場,壁球場,活動室","N.A.","N.A.","N.A.","N.A.","N.A.","N.A.","N.A.","N.A.","http://www.lcsd.gov.hk/en/facilities/facilitieslist/landsports/sportcentre.html","http://www.lcsd.gov.hk/tc/facilities/facilitieslist/landsports/sportcentre.html","826498.0","829509.0","22.37767005","114.11124447","2017-05-08 03:59:34"
"gxft8py3L7","Sports Centres","Heng On Sports Centre","4/F., Heng On Commercial Centre, Heng On Estate, Ma On Shan, Sha Tin","體育館","恒安體育館","沙田馬鞍山恒安邨恒安商場四樓","SHA TIN","沙田","BASKETBALL COURTS,VOLLEYBALL COURTS,BADMINTON COURTS,SQUASH COURTS,TABLE TENNIS TABLES,ACTIVITY ROOMS,FITNESS ROOMS","籃球場,排球場,羽毛球場,壁球場,乒乓球檯,活動室,健身室","N.A.","N.A.","N.A.","N.A.","N.A.","N.A.","N.A.","N.A.","http://www.lcsd.gov.hk/en/facilities/facilitieslist/landsports/sportcentre.html","http://www.lcsd.gov.hk/tc/facilities/facilitieslist/landsports/sportcentre.html","830818.0","841518.0","22.41668708","114.22786614","2017-01-27 03:43:19"
"ubTCikZT4K","Sports Centres","Tin Yip Road Artificial Sand Court","Tin Yip Road, Tin Shui Wai","體育館","天業路人造沙灘球場","新界天水圍天業路","YUEN LONG","元朗","VOLLEYBALL COURTS,HANDBALL COURTS","排球場,手球場","Beach Volleyball Court<br/><br/>Every Monday, Wednesday, Friday & Sunday <br/><br/>8am to 10pm<br/><br/>(Closed for Maintenance on Every Wednesday from 8am to 5pm)<br/><br/><br/><br/>Beach Handball Court<br/><br/>Every Tuesday, Thursday & Saturday<br/><br/>8am to 10pm","沙灘排球場<br/><br/>逢星期一、三、五及日<br/><br/>上午八時至晚上十時<br/><br/>(逢星期三保養日，上午八時至下午五時暫停開放)<br/><br/><br/><br/>沙灘手球場<br/><br/>逢星期二、四及六<br/><br/>上午八時至晚上十時","2682 3197","2682 3197","N.A.","N.A.","N.A.","N.A.","N.A.","N.A.","836110.0","818723.0","22.46439883","114.00641449","2015-05-13 04:01:55"
"7jzyallSK9","Sports Centres","Tai Tau Leng Sitting-out Area","Tai Tau Leng Village, Po Shek Wu Road, Sheung Shui, N.T.","體育館","大頭嶺休憩處","新界上水寶石湖路大頭嶺村","NORTH","北區","BADMINTON COURTS","羽毛球場","24 hours daily","全日開放","2679 2818","2679 2818","N.A.","N.A.","N.A.","N.A.","N.A.","N.A.","840075.0","830754.0","22.50028734","114.12329124","2015-05-12 03:40:44"
"5wh83GvZu0","Sports Centres","Tai Tsoi Yuen Garden","Tai Tsoi Yuen Road, Cheung Chau","體育館","大菜園花園","長洲大菜園路","ISLANDS","離島","GATEBALL COURTS","門球場","2 pm to 6 pm<br/><br/>Turf maintenance on every Thursday","下午2時至6時<br/><br/>逢星期四草地保養","2852 3220","2852 3220","N.A.","N.A.","N.A.","N.A.","N.A.","N.A.","807386.0","821039.0","22.20503122","114.02918811","2014-03-20 09:36:29"
"iovenAqhn8","Sports Centres","Tin Fai Road Sports Centre","No. 63, Tin Shui Road, Tin Shui Wai, Yuen Long, N.T.","體育館","天暉路體育館","天水圍天瑞路63號","YUEN LONG","元朗","BADMINTON COURTS,ACTIVITY ROOMS,BASKETBALL COURTS,VOLLEYBALL COURTS,FITNESS ROOMS,TABLE TENNIS TABLES,CHILDREN'S PLAY ROOMS,SPORTS CLIMBING FACILITIES,INDOOR JOGGING TRACKS,SPECTATOR STANDS","羽毛球場,活動室,籃球場,排球場,健身室,乒乓球檯,兒童遊戲室,運動攀登設施,室內緩跑徑,觀眾席看台","7 am to 11 pm daily","每日上午7時至晚上11時","2473 0229","2473 0229","2473 0311","2473 0311","tfrsc@lcsd.gov.hk","tfrsc@lcsd.gov.hk","N.A.","N.A.","836155.0","817757.0","22.4647959","113.99702152","2013-08-15 09:46:34"
"979T1t2VXr","Sports Centres","Hang Hau Sports Centre","1-3/F, Sai Kung Tseung Kwan O Government Complex, 38 Pui Shing Road, Tseung Kwan O.","體育館","坑口體育館","將軍澳培成路38號西貢將軍澳政府綜合大樓1至3樓","SAI KUNG","西貢","BASKETBALL COURTS,VOLLEYBALL COURTS,BADMINTON COURTS,TABLE TENNIS TABLES,ACTIVITY ROOMS,FITNESS ROOMS,CHILDREN'S PLAY ROOMS, INDOOR JOGGING TRACKS","籃球場,排球場,羽毛球場,乒乓球檯,活動室,健身室,兒童遊戲室,室內緩跑徑","N.A.","N.A.","N.A.","N.A.","N.A.","N.A.","N.A.","N.A.","N.A.","N.A.","819800.0","845681.0","22.31717358","114.26823517","2012-08-01 03:20:45"
"NaDMA7XHJI","Sports Centres","Po Wing Road Sports Centre","19 Pak Wo Road, Sheung Shui, New Territories","體育館","保榮路體育館","新界上水百和路19號","NORTH","北區","BASKETBALL COURTS,VOLLEYBALL COURTS,BADMINTON COURTS,TABLE TENNIS TABLES, AMERICAN POOL TABLES, ACTIVITY ROOMS, FITNESS ROOMS, CHILDREN'S PLAY ROOMS, INDOOR JOGGING TRACKS, SPORTS CLIMBING FACILITIES","籃球場,排球場,羽毛球場,乒乓球室,美式桌球檯,活動室,健身室,兒童遊戲室,室內緩跑徑,運動攀登設施","N.A.","N.A.","N.A.","N.A.","N.A.","N.A.","N.A.","N.A.","N.A.","N.A.","839708.0","831273.0","22.49696848","114.12839948","2012-08-01 03:19:53"
"5LhIrRs6cq","Sports Centres","Ping Shan Tin Shui Wai Sports Centre","1, Tsui Sing Road, Tin Shui Wai, Yuen Long","體育館","屏山天水圍體育館","元朗屏山天水圍聚星路1號","YUEN LONG","元朗","BASKETBALL COURTS,VOLLEYBALL COURTS,BADMINTON COURTS,TABLE TENNIS TABLES,ACTIVITY ROOMS,CHILDREN'S PLAY ROOMS","籃球場,排球場,羽毛球場,乒乓球檯,活動室,兒童遊戲室","N.A.","N.A.","N.A.","N.A.","N.A.","N.A.","N.A.","N.A.","N.A.","N.A.","834227.0","818540.0","22.44739269","114.00465358","2012-03-02 08:20:21"
"C2cPEbqrpV","Sports Centres","Chai Wan Sports Centre","6 Yee Shun Street, Chai Wan","體育館","柴灣體育館","香港柴灣怡順街6號","EASTERN","東區","BASKETBALL COURTS,VOLLEYBALL COURTS,BADMINTON COURTS,SQUASH COURTS,TABLE TENNIS TABLES,ACTIVITY ROOMS,FITNESS ROOMS","籃球場,排球場,羽毛球場,壁球場,乒乓球檯,活動室,健身室","","","","","N.A.","N.A.","N.A.","N.A.","http://www.lcsd.gov.hk/en/facilities/facilitieslist/landsports/sportcentre.html","http://www.lcsd.gov.hk/tc/facilities/facilitieslist/landsports/sportcentre.html","814005.0","842765.0","22.26485191","114.23990955","2011-12-12 02:07:14"
"oaEwG8zi3e","Sports Centres","Siu Sai Wan Sports Centre","2/F - 4/F, Siu Sai Wan Complex, 15 Siu Sai Wan Road, Hong Kong","體育館","小西灣體育館","香港小西灣道15號小西灣綜合大樓二至四樓","EASTERN","東區","BASKETBALL COURTS,VOLLEYBALL COURTS,BADMINTON COURTS,TABLE TENNIS TABLES,ACTIVITY ROOMS,CHILDREN'S PLAY ROOMS","籃球場,排球場,羽毛球場,乒乓球檯,活動室,兒童遊戲室","7 am – 11 pm daily<br/><br/>(except maintenance days)<br/><br/><br/><br/>Maintenance Day: 7 am – 1 pm on the 1st and 3rd Mondays of each month <br/><br/>(If a maintenance day falls on a public holiday, it will be rescheduled for the next working day.)","每日上午7時至晚上11時<br/><br/>(定期保養日除外)<br/><br/> <br/><br/>定期保養日:每月第一和第三個星期一上午7時至下午1時 <br/><br/>(如該日為公眾假期，保養日則順延至下一個工作日)","3427 3121","3427 3121","3427 9032","3427 9032","sswsc@lcsd.gov.hk","sswsc@lcsd.gov.hk","http://www.lcsd.gov.hk/en/facilities/facilitieslist/landsports/sportcentre.html","http://www.lcsd.gov.hk/tc/facilities/facilitieslist/landsports/sportcentre.html","813872.0","843759.0","22.26357455","114.24955287","2011-06-07 11:23:14"
"R7UxGtPcMs","Sports Centres","Fu Heng Sports Centre","1/F, Fu Heng Shopping Centre, Fu Heng Estate, Tai Po","體育館","富亨體育館","大埔富亨邨富亨商場一樓","TAI PO","大埔","BASKETBALL COURTS,VOLLEYBALL COURTS,BADMINTON COURTS,SQUASH COURTS,TABLE TENNIS TABLES,ACTIVITY ROOMS,FITNESS ROOMS","籃球場,排球場,羽毛球場,壁球場,乒乓球檯,活動室,健身室","N.A.","N.A.","N.A.","N.A.","N.A.","N.A.","N.A.","N.A.","http://www.lcsd.gov.hk/en/facilities/facilitieslist/landsports/sportcentre.html","http://www.lcsd.gov.hk/tc/facilities/facilitieslist/landsports/sportcentre.html","835424.0","835700.0","22.45828936","114.17135593","2010-10-25 03:00:42"
"Xnd3NJTxIV","Sports Centres","Sai Wan Ho Sports Centre","2/F Sai Wan Ho Municipal Services Building, 111 Shau Kei Wan Road, Shaukiwan","體育館","西灣河體育館","筲箕灣道111號西灣河市政大廈三樓","EASTERN","東區","BASKETBALL COURTS,BADMINTON COURTS,SQUASH COURTS,TABLE TENNIS TABLES,ACTIVITY ROOMS,DANCE ROOMS","籃球場,羽毛球場,壁球場,乒乓球檯,活動室,舞蹈室","N.A.","N.A.","N.A.","N.A.","N.A.","N.A.","N.A.","N.A.","http://www.lcsd.gov.hk/en/facilities/facilitieslist/landsports/sportcentre.html","http://www.lcsd.gov.hk/tc/facilities/facilitieslist/landsports/sportcentre.html","815909.0","840993.0","22.28205202","114.22272286","2010-10-06 08:09:05"
"GEh3942DZP","Sports Centres","Cheung Sha Wan Sports Centre","J/O Hing Wah Street & Cheung Sha Wan Road, Sham Shui Po","體育館","長沙灣體育館","深水埗興華街與長沙灣道交界","SHAM SHUI PO","深水埗","BASKETBALL COURTS,VOLLEYBALL COURTS,BADMINTON COURTS,TABLE TENNIS TABLES,OUTDOOR TABLE TENNIS TABLES","籃球場,排球場,羽毛球場,乒乓球檯,戶外乒乓球檯","N.A.","N.A.","N.A.","N.A.","N.A.","N.A.","N.A.","N.A.","http://www.lcsd.gov.hk/en/facilities/facilitieslist/landsports/sportcentre.html","http://www.lcsd.gov.hk/tc/facilities/facilitieslist/landsports/sportcentre.html","822100.0","833857.0","22.33796529","114.15347018","2010-04-08 04:36:55"
"dHsPb8snlq","Sports Centres","Tung Chung Man Tung Road Sports Centre","G/F., Tung Chung Municipal Services Building, 39 Man Tung Road, Tung Chung","體育館","東涌文東路體育館","東涌文東路39號東涌市政大樓地下","ISLANDS","離島","BASKETBALL COURTS, VOLLEYBALL COURTS, BADMINTON COURTS,TABLE TENNIS TABLES,ACTIVITY ROOMS,FITNESS ROOMS,CHILDREN'S PLAY ROOMS","籃球場,排球場,羽毛球場,乒乓球檯,活動室,健身室,兒童遊戲室","N.A.","N.A.","N.A.","N.A.","N.A.","N.A.","N.A.","N.A.","http://www.lcsd.gov.hk/en/facilities/facilitieslist/landsports/sportcentre.html","http://www.lcsd.gov.hk/tc/facilities/facilitieslist/landsports/sportcentre.html","816872.0","812252.0","22.29058776","113.94383087","2010-03-09 10:04:35"
"iYVv4IDneF","Sports Centres","Kowloon Park Sports Centre","22 Austin Road, Tsim Sha Tsui","體育館","九龍公園體育館","尖沙咀柯士甸道22號","YAU TSIM MONG","油尖旺","VOLLEYBALL COURTS,NETBALL COURTS,BADMINTON COURTS,HANDBALL COURTS,SQUASH COURTS,ACTIVITY ROOMS,FITNESS ROOMS,DANCE ROOMS,TABLE TENNIS TABLES","排球場,投球場,羽毛球場,手球場,壁球場,活動室,健身室,舞蹈室,乒乓球檯","","","","","","","","","http://www.lcsd.gov.hk/en/facilities/facilitieslist/landsports/sportcentre.html","http://www.lcsd.gov.hk/tc/facilities/facilitieslist/landsports/sportcentre.html","818101.0","835555.0","22.30179026","114.16975107","2010-01-13 10:48:56"
"1cydaZdr9K","Sports Centres","Ap Lei Chau Sports Centre","8 Hung Shing Street, Apleichau","體育館","鴨脷洲體育館","鴨脷洲洪聖街8號","SOUTHERN","南區","BASKETBALL COURTS,VOLLEYBALL COURTS,NETBALL COURTS,BADMINTON COURTS,BOWLING GREENS,SQUASH COURTS,TABLE TENNIS TABLES,ACTIVITY ROOMS,FITNESS ROOMS,DANCE ROOMS,CHILDREN'S PLAY ROOMS","籃球場,排球場,投球場,羽毛球場,草地滾球場,壁球場,乒乓球檯,活動室,健身室,舞蹈室,兒童遊戲室","N.A.","N.A.","N.A.","N.A.","N.A.","N.A.","N.A.","N.A.","http://www.lcsd.gov.hk/en/facilities/facilitieslist/landsports/sportcentre.html","http://www.lcsd.gov.hk/tc/facilities/facilitieslist/landsports/sportcentre.html","811748.0","834056.0","22.24448053","114.15541617","2010-01-13 10:48:50"
"nD4LTc5Mzo","Sports Centres","Mui Wo Sports Centre","1/F, Mui Wo Municipal Services Building, 9 Ngan Shek Street, Lantau Island","體育館","梅窩體育館","大嶼山銀石街9號梅窩市政大廈一樓","ISLANDS","離島","BASKETBALL COURTS,VOLLEYBALL COURTS,BADMINTON COURTS,GATEBALL COURTS,ACTIVITY ROOMS,FITNESS ROOMS,SQUASH COURTS","籃球場,排球場,羽毛球場,門球場,活動室,健身室,壁球場","N.A.","N.A.","N.A.","N.A.","N.A.","N.A.","N.A.","N.A.","http://www.lcsd.gov.hk/en/facilities/facilitieslist/landsports/sportcentre.html","http://www.lcsd.gov.hk/tc/facilities/facilitieslist/landsports/sportcentre.html","814251.0","817675.0","22.26698558","113.99647877","2010-01-13 10:48:42"
"72Zzw9WrNL","Sports Centres","Ho Man Tin Sports Centre","1 Chung Yee street, Ho Man Tin","體育館","何文田體育館","九龍何文田忠義街1號","KOWLOON CITY","九龍城","TABLE TENNIS TABLES,AMERICAN POOL TABLES,ACTIVITY ROOMS,TENNIS COURTS,FITNESS ROOMS,CHILDREN'S PLAY ROOMS","乒乓球檯,美式桌球檯,活動室,網球場,健身室,兒童遊戲室","N.A.","N.A.","N.A.","N.A.","N.A.","N.A.","N.A.","N.A.","http://www.lcsd.gov.hk/en/facilities/facilitieslist/landsports/sportcentre.html","http://www.lcsd.gov.hk/tc/facilities/facilitieslist/landsports/sportcentre.html","819221.0","836718.0","22.31196785","114.18124181","2010-01-13 10:48:35"
"XBDqkvnJD0","Sports Centres","Praya Street Sports Centre","1/F, Cheung Chau Municipal Services Building, 2 Tai Hing Tai Road, Cheung Chau","體育館","海傍街體育館","長洲大興堤路長洲市政大廈一樓","ISLANDS","離島","BADMINTON COURTS,ACTIVITY ROOMS,SQUASH COURTS,GATEBALL COURTS","羽毛球場,活動室,壁球場,門球場","N.A.","N.A.","N.A.","N.A.","N.A.","N.A.","N.A.","N.A.","http://www.lcsd.gov.hk/en/facilities/facilitieslist/landsports/sportcentre.html","http://www.lcsd.gov.hk/tc/facilities/facilitieslist/landsports/sportcentre.html","807585.0","820953.0","22.20681943","114.02834637","2010-01-13 10:48:30"
"UioMm8tCCe","Sports Centres","Wai Tsuen Sports Centre","6 Miu Kong Street, Tsuen Wan","體育館","蕙荃體育館","荃灣廟崗街6號","TSUEN WAN","荃灣","BASKETBALL COURTS,VOLLEYBALL COURTS,BADMINTON COURTS,SQUASH COURTS,TABLE TENNIS TABLES,ACTIVITY ROOMS,FITNESS ROOMS","籃球場,排球場,羽毛球場,壁球場,乒乓球檯,活動室,健身室","N.A.","N.A.","N.A.","N.A.","N.A.","N.A.","N.A.","N.A.","http://www.lcsd.gov.hk/en/facilities/facilitieslist/landsports/sportcentre.html","http://www.lcsd.gov.hk/tc/facilities/facilitieslist/landsports/sportcentre.html","825905.0","830667.0","22.37231912","114.12249072","2010-01-13 10:48:21"
"lDrOfHr49Y","Sports Centres","Wong Chuk Hang Sports Centre","168 Wong Chuk Hang Road, Aberdeen","體育館","黃竹坑體育館","黃竹坑道168號","SOUTHERN","南區","BASKETBALL COURTS,VOLLEYBALL COURTS,NETBALL COURTS,BADMINTON COURTS,ACTIVITY ROOMS","籃球場,排球場,投球場,羽毛球場,活動室","N.A.","N.A.","N.A.","N.A.","N.A.","N.A.","N.A.","N.A.","http://www.lcsd.gov.hk/en/facilities/facilitieslist/landsports/sportcentre.html","http://www.lcsd.gov.hk/tc/facilities/facilitieslist/landsports/sportcentre.html","812330.0","835909.0","22.24973776","114.17339162","2010-01-13 10:48:09"
"qLFyWrLDp0","Sports Centres","Yue Kwong Road Sports Centre","Aberdeen Reservoir Road","體育館","漁光道體育館","香港仔水塘道18號","SOUTHERN","南區","BASKETBALL COURTS,VOLLEYBALL COURTS,BADMINTON COURTS,ACTIVITY ROOMS","籃球場,排球場,羽毛球場,活動室","N.A.","N.A.","N.A.","N.A.","N.A.","N.A.","N.A.","N.A.","http://www.lcsd.gov.hk/en/facilities/facilitieslist/landsports/sportcentre.html","http://www.lcsd.gov.hk/tc/facilities/facilitieslist/landsports/sportcentre.html","812416.0","834220.0","22.25051322","114.15700625","2010-01-13 10:48:04"
"beSpGJQrvL","Sports Centres","Luen Wo Hui Sports Centre","3/F., 9 Wo Mun Street, Fanling","體育館","聯和墟體育館","粉嶺和滿街9號3樓","NORTH","北區","TABLE TENNIS TABLES,FITNESS ROOMS,ACTIVITY ROOMS,DANCE ROOMS,CHILDREN'S PLAY ROOMS","乒乓球檯,健身室,活動室,舞蹈室,兒童遊戲室","N.A.","N.A.","N.A.","N.A.","N.A.","N.A.","N.A.","N.A.","http://www.lcsd.gov.hk/en/facilities/facilitieslist/landsports/sportcentre.html","http://www.lcsd.gov.hk/tc/facilities/facilitieslist/landsports/sportcentre.html","840074.0","832990.0","22.50027775","114.14501703","2010-01-13 10:47:58"
"NA453y8t3Y","Sports Centres","Tin Shui Sports Centre","7 Tin Shui Road, Tin Shui Wai, Yuen Long","體育館","天瑞體育館","天水圍天瑞路7號","YUEN LONG","元朗","BASKETBALL COURTS,VOLLEYBALL COURTS,BADMINTON COURTS,HANDBALL COURTS,TABLE TENNIS TABLES,ACTIVITY ROOMS,FITNESS ROOMS,CHILDREN'S PLAY ROOMS","籃球場,排球場,羽毛球場,手球場,乒乓球檯,活動室,健身室,兒童遊戲室","N.A.","N.A.","N.A.","N.A.","N.A.","N.A.","N.A.","N.A.","http://www.lcsd.gov.hk/en/facilities/facilitieslist/landsports/sportcentre.html","http://www.lcsd.gov.hk/tc/facilities/facilitieslist/landsports/sportcentre.html","835045.0","817854.0","22.45476779","113.99797587","2010-01-13 10:47:53"
"4Sk1jN8EAV","Sports Centres","To Kwa Wan Sports Centre","66 Ha Heung Road, To Kwa Wan","體育館","土瓜灣體育館","土瓜灣下鄉道66號","KOWLOON CITY","九龍城","BASKETBALL COURTS,VOLLEYBALL COURTS,NETBALL COURTS,BADMINTON COURTS,ACTIVITY ROOMS,SQUASH COURTS,TABLE TENNIS TABLES,FITNESS ROOMS","籃球場,排球場,投球場,羽毛球場,活動室,壁球場,乒乓球檯,健身室","N.A.","N.A.","N.A.","N.A.","N.A.","N.A.","N.A.","N.A.","http://www.lcsd.gov.hk/en/facilities/facilitieslist/landsports/sportcentre.html","http://www.lcsd.gov.hk/tc/facilities/facilitieslist/landsports/sportcentre.html","819983.0","837633.0","22.31884869","114.19012296","2010-01-13 10:47:47"
"80hSCBcAOQ","Sports Centres","Aberdeen Sports Centre","6/F Aberdeen Municipal Services Building, 203 Aberdeen Main Road, Aberdeen","體育館","香港仔體育館","香港仔大道203號香港仔市政大廈6樓","SOUTHERN","南區","BASKETBALL COURTS,VOLLEYBALL COURTS,BADMINTON COURTS,SQUASH COURTS,TABLE TENNIS TABLES,ACTIVITY ROOMS,FITNESS ROOMS,DANCE ROOMS,CHILDREN'S PLAY ROOMS","籃球場,排球場,羽毛球場,壁球場,乒乓球檯,活動室,健身室,舞蹈室,兒童遊戲室","N.A.","N.A.","N.A.","N.A.","N.A.","N.A.","N.A.","N.A.","http://www.lcsd.gov.hk/en/facilities/facilitieslist/landsports/sportcentre.html","http://www.lcsd.gov.hk/tc/facilities/facilitieslist/landsports/sportcentre.html","812311.0","833947.0","22.24956466","114.15435797","2010-01-13 10:47:41"
"ZvenzVSC6B","Sports Centres","Cheung Chau Sports Centre","Nam She Tong, Cheung Chau","體育館","長洲體育館","長洲南蛇塘","ISLANDS","離島","BASKETBALL COURTS,VOLLEYBALL COURTS,BADMINTON COURTS,GATEBALL COURTS,TABLE TENNIS TABLES,ACTIVITY ROOMS,FITNESS ROOMS,CHILDREN'S PLAY ROOMS","籃球場,排球場,羽毛球場,門球場,乒乓球檯,活動室,健身室,兒童遊戲室","N.A.","N.A.","N.A.","N.A.","N.A.","N.A.","N.A.","N.A.","http://www.lcsd.gov.hk/en/facilities/facilitieslist/landsports/sportcentre.html","http://www.lcsd.gov.hk/tc/facilities/facilitieslist/landsports/sportcentre.html","807661.0","821245.0","22.20750832","114.03117753","2010-01-13 10:47:34"
"bbCDTEJM3N","Sports Centres","Lai King Sports Centre","60 Lai Cho Road, Lai King, Kwai Chung","體育館","荔景體育館","葵涌荔景麗祖路60號","KWAI TSING","葵青","BASKETBALL COURTS,VOLLEYBALL COURTS,BADMINTON COURTS,SQUASH COURTS,TABLE TENNIS TABLES,ACTIVITY ROOMS,FITNESS ROOMS","籃球場,排球場,羽毛球場,壁球場,乒乓球檯,活動室,健身室","","","","","","","","","http://www.lcsd.gov.hk/en/facilities/facilitieslist/landsports/sportcentre.html","http://www.lcsd.gov.hk/tc/facilities/facilitieslist/landsports/sportcentre.html","823417.0","831200.0","22.34987084","114.12767384","2010-01-13 10:47:26"
"3FeNLYvXCy","Sports Centres","Tai Wo Hau Sports Centre","39 Tai Ha Street, Tai Wo Hau, Kwai Chung","體育館","大窩口體育館","葵涌大窩口大廈街39號","KWAI TSING","葵青","BASKETBALL COURTS,VOLLEYBALL COURTS,BADMINTON COURTS,SQUASH COURTS,TABLE TENNIS TABLES,ACTIVITY ROOMS,FITNESS ROOMS","籃球場,排球場,羽毛球場,壁球場,乒乓球檯,活動室,健身室","","","","","","","","","http://www.lcsd.gov.hk/en/facilities/facilitieslist/landsports/sportcentre.html","http://www.lcsd.gov.hk/tc/facilities/facilitieslist/landsports/sportcentre.html","825670.0","830920.0","22.37011646","114.12491895","2010-01-13 10:47:19"
"0ydU9SRptM","Sports Centres","North Kwai Chung Tang Shiu Kin Sports Centre","292 Wo Yi Hop Road, Kwai Chung","體育館","北葵涌鄧肇堅體育館","葵涌和宜合路292號","KWAI TSING","葵青","BASKETBALL COURTS, VOLLEYBALL COURTS, BADMINTON COURTS,TENNIS COURTS,SQUASH COURTS,TABLE TENNIS TABLES,ACTIVITY ROOMS,FITNESS ROOMS","籃球場,排球場,羽毛球場,網球場,壁球場,乒乓球檯,活動室,健身室","","","","","","","N.A.","N.A.","http://www.lcsd.gov.hk/en/facilities/facilitieslist/landsports/sportcentre.html","http://www.lcsd.gov.hk/tc/facilities/facilitieslist/landsports/sportcentre.html","826076.0","832218.0","22.37367805","114.13753056","2010-01-13 10:47:12"
"F2yrtLLjXO","Sports Centres","Tai Hing Sports Centre","38 Tsing Chung Koon Road, Tuen Mun","體育館","大興體育館","屯門青松觀路38號","TUEN MUN","屯門","BASKETBALL COURTS,VOLLEYBALL COURTS,NETBALL COURTS,BADMINTON COURTS,SQUASH COURTS,TABLE TENNIS TABLES,ACTIVITY ROOMS,DANCE ROOMS,FITNESS ROOMS","籃球場,排球場,投球場,羽毛球場,壁球場,乒乓球檯,活動室,舞蹈室,健身室","","","","","","","","","http://www.lcsd.gov.hk/en/facilities/facilitieslist/landsports/sportcentre.html","http://www.lcsd.gov.hk/tc/facilities/facilitieslist/landsports/sportcentre.html","829358.0","815282.0","22.40316562","113.97318964","2010-01-13 10:47:05"
"FOoc6KrkiV","Sports Centres","Shui Wo Street Sports Centre","8/F & 9/F,Shui Wo Street Municipal Services Building,9 Shui Wo Street, Kwun Tong,Kowloon.","體育館","瑞和街體育館","觀塘瑞和街9號瑞和市政大廈8樓及9樓","KWUN TONG","觀塘","BASKETBALL COURTS,VOLLEYBALL COURTS,BADMINTON COURTS,SQUASH COURTS,TABLE TENNIS TABLES,ACTIVITY ROOMS","籃球場,排球場,羽毛球場,壁球場,乒乓球檯,活動室","","","","","","","","","http://www.lcsd.gov.hk/en/facilities/facilitieslist/landsports/sportcentre.html","http://www.lcsd.gov.hk/tc/facilities/facilitieslist/landsports/sportcentre.html","819631.0","841152.0","22.31566352","114.22427705","2010-01-13 10:46:52"
"pEIqhGVtHw","Sports Centres","Lam Tin South Sports Centre","170 Pik Wan Road, Lam Tin, Kwun Tong","體育館","藍田(南)體育館","觀塘藍田碧雲道170號","KWUN TONG","觀塘","BASKETBALL COURTS,VOLLEYBALL COURTS,NETBALL COURTS,BADMINTON COURTS,ACTIVITY ROOMS,FITNESS ROOMS,SQUASH COURTS,TABLE TENNIS TABLES,CHILDREN'S PLAY ROOMS","籃球場,排球場,投球場,羽毛球場,活動室,健身室,壁球場,乒乓球檯,兒童遊戲室","","","","","","","","","http://www.lcsd.gov.hk/en/facilities/facilitieslist/landsports/sportcentre.html","http://www.lcsd.gov.hk/tc/facilities/facilitieslist/landsports/sportcentre.html","818325.0","842653.0","22.30386464","114.2388401","2010-01-13 10:46:46"
"NEhICEQrVe","Sports Centres","Stanley Sports Centre","U/G, 6 Stanley Maket Road, Stanley","體育館","赤柱體育館","赤柱市場道6號","SOUTHERN","南區","BASKETBALL COURTS,VOLLEYBALL COURTS,BADMINTON COURTS,TABLE TENNIS TABLES,DANCE ROOMS,ACTIVITY ROOMS,CHILDREN'S PLAY ROOMS","籃球場,排球場,羽毛球場,乒乓球檯,舞蹈室,活動室,兒童遊戲室","N.A.","N.A.","N.A.","N.A.","N.A.","N.A.","N.A.","N.A.","http://www.lcsd.gov.hk/en/facilities/facilitieslist/landsports/sportcentre.html","http://www.lcsd.gov.hk/tc/facilities/facilitieslist/landsports/sportcentre.html","808944.0","839911.0","22.21915603","114.21220799","2010-01-13 10:46:40"
"jMjijMXhQk","Sports Centres","Po Kong Village Road Sports Centre","120 Po Kong Village Road, Wong Tai Sin","體育館","蒲崗村道體育館","黃大仙蒲崗村道120號","WONG TAI SIN","黃大仙","BASKETBALL COURTS,VOLLEYBALL COURTS,BADMINTON COURTS,SQUASH COURTS,TABLE TENNIS TABLES,ACTIVITY ROOMS,FITNESS ROOMS,CHILDREN'S PLAY ROOMS","籃球場,排球場,羽毛球場,壁球場,乒乓球檯,活動室,健身室,兒童遊戲室","N.A.","N.A.","N.A.","N.A.","N.A.","N.A.","N.A.","N.A.","http://www.lcsd.gov.hk/en/facilities/facilitieslist/landsports/sportcentre.html","http://www.lcsd.gov.hk/tc/facilities/facilitieslist/landsports/sportcentre.html","822930.0","838814.0","22.34546046","114.20159036","2010-01-13 10:46:34"
"A6lQGbDvoH","Sports Centres","Java Road Sports Centre","3/F, Java Road Municipal Services Building, 99 Java Road,North Point","體育館","渣華道體育館","北角渣華道99號渣華道市政大廈3樓","EASTERN","東區","BASKETBALL COURTS,VOLLEYBALL COURTS,BADMINTON COURTS,SQUASH COURTS,TABLE TENNIS TABLES,ACTIVITY ROOMS,DANCE ROOMS,CHILDREN'S PLAY ROOMS,AMERICAN POOL TABLES","籃球場,排球場,羽毛球場,壁球場,乒乓球檯,活動室,舞蹈室,兒童遊戲室,美式桌球檯","N.A.","N.A.","N.A.","N.A.","N.A.","N.A.","N.A.","N.A.","http://www.lcsd.gov.hk/en/facilities/facilitieslist/landsports/sportcentre.html","http://www.lcsd.gov.hk/tc/facilities/facilitieslist/landsports/sportcentre.html","817038.0","838589.0","22.29225252","114.19939755","2010-01-13 10:46:20"
"RnO78CrxyU","Sports Centres","Po On Road Sports Centre","1/F & 2/F Po On Road Municipal Services Building, 325-329 Po On Road, Sham Shui Po","體育館","保安道體育館","深水埗保安道325-329號保安道市政大廈2至3樓","SHAM SHUI PO","深水埗","BASKETBALL COURTS,VOLLEYBALL COURTS,BADMINTON COURTS,SQUASH COURTS,TABLE TENNIS TABLES,ACTIVITY ROOMS,FITNESS ROOMS,DANCE ROOMS","籃球場,排球場,羽毛球場,壁球場,乒乓球檯,活動室,健身室,舞蹈室","N.A.","N.A.","N.A.","N.A.","N.A.","N.A.","N.A.","N.A.","http://www.lcsd.gov.hk/en/facilities/facilitieslist/landsports/sportcentre.html","http://www.lcsd.gov.hk/tc/facilities/facilitieslist/landsports/sportcentre.html","822172.0","834261.0","22.33861872","114.15739182","2010-01-13 10:46:13"
"VY4Pv069oT","Sports Centres","Hin Keng Sports Centre","Hin Keng Commercial Centre, Hin Keng Estate, Sha Tin","體育館","顯徑體育館","沙田顯徑邨顯徑商場","SHA TIN","沙田","BASKETBALL COURTS,VOLLEYBALL COURTS,BADMINTON COURTS,SQUASH COURTS,TABLE TENNIS TABLES,ACTIVITY ROOMS,DANCE ROOMS","籃球場,排球場,羽毛球場,壁球場,乒乓球檯,活動室,舞蹈室","N.A.","N.A.","N.A.","N.A.","N.A.","N.A.","N.A.","N.A.","http://www.lcsd.gov.hk/en/facilities/facilitieslist/landsports/sportcentre.html","http://www.lcsd.gov.hk/tc/facilities/facilitieslist/landsports/sportcentre.html","824880.0","835698.0","22.36307184","114.17134025","2010-01-13 10:46:07"
"s82ZhTsvAe","Sports Centres","Tin Shui Wai Sports Centre","1 Tin Pak Road, Tin Shui Wai, Yuen Long","體育館","天水圍體育館","元朗天水圍天柏路1號","YUEN LONG","元朗","BASKETBALL COURTS,VOLLEYBALL COURTS,BADMINTON COURTS,SQUASH COURTS,ACTIVITY ROOMS,FITNESS ROOMS,DANCE ROOMS","籃球場,排球場,羽毛球場,壁球場,活動室,健身室,舞蹈室","N.A.","N.A.","N.A.","N.A.","N.A.","N.A.","N.A.","N.A.","http://www.lcsd.gov.hk/en/facilities/facilitieslist/landsports/sportcentre.html","http://www.lcsd.gov.hk/tc/facilities/facilitieslist/landsports/sportcentre.html","835071.0","818736.0","22.45501185","114.0065445","2010-01-13 10:46:02"
"uLu7BSox9C","Sports Centres","Tsui Lam Sports Centre","Tsui Lam Estate, Sai Kung","體育館","翠林體育館","西貢將軍澳翠林邨","SAI KUNG","西貢","BASKETBALL COURTS,VOLLEYBALL COURTS,BADMINTON COURTS,SQUASH COURTS,TABLE TENNIS TABLES,ACTIVITY ROOMS,FITNESS ROOMS","籃球場,排球場,羽毛球場,壁球場,乒乓球檯,活動室,健身室","","","","","","","","","http://www.lcsd.gov.hk/en/facilities/facilitieslist/landsports/sportcentre.html","http://www.lcsd.gov.hk/tc/facilities/facilitieslist/landsports/sportcentre.html","820359.0","843754.0","22.32222843","114.2495347","2010-01-13 10:45:57"
"beRdrUruU3","Sports Centres","Po Lam Sports Centre","Po Lam Estate, Tseung Kwan O, Sai Kung","體育館","寶林體育館","西貢將軍澳寶林邨","SAI KUNG","西貢","BASKETBALL COURTS,VOLLEYBALL COURTS,BADMINTON COURTS,SQUASH COURTS,TABLE TENNIS TABLES,ACTIVITY ROOMS,FITNESS ROOMS","籃球場,排球場,羽毛球場,壁球場,乒乓球檯,活動室,健身室","","","","","","","","","http://www.lcsd.gov.hk/en/facilities/facilitieslist/landsports/sportcentre.html","http://www.lcsd.gov.hk/tc/facilities/facilitieslist/landsports/sportcentre.html","820761.0","844328.0","22.32585613","114.25510805","2010-01-13 10:45:49"
"6kKCJuGvX9","Sports Centres","Tsing Yi Sports Centre","2/F, Tsing Yi Municipal Services Building, 38 Tsing Luk Street, Tsing Yi","體育館","青衣體育館","青衣青綠街38號青衣市政大廈2樓","KWAI TSING","葵青","BASKETBALL COURTS,VOLLEYBALL COURTS,BADMINTON COURTS,SQUASH COURTS,TABLE TENNIS TABLES,ACTIVITY ROOMS,FITNESS ROOMS,DANCE ROOMS","籃球場,排球場,羽毛球場,壁球場,乒乓球檯,活動室,健身室,舞蹈室","","","","","","","","","http://www.lcsd.gov.hk/en/facilities/facilitieslist/landsports/sportcentre.html","http://www.lcsd.gov.hk/tc/facilities/facilitieslist/landsports/sportcentre.html","823899.0","829020.0","22.35409834","114.10645957","2010-01-13 10:45:42"
"H4hm7tEIA0","Sports Centres","Hiu Kwong Street Sports Centre","2 Hiu Kwong Street, Kwun Tong","體育館","曉光街體育館","觀塘曉光街2號","KWUN TONG","觀塘","BASKETBALL COURTS,VOLLEYBALL COURTS,BADMINTON COURTS,SQUASH COURTS,TABLE TENNIS TABLES,ACTIVITY ROOMS,DANCE ROOMS","籃球場,排球場,羽毛球場,壁球場,乒乓球檯,活動室,舞蹈室","","","","","","","","","http://www.lcsd.gov.hk/en/facilities/facilitieslist/landsports/sportcentre.html","http://www.lcsd.gov.hk/tc/facilities/facilitieslist/landsports/sportcentre.html","820089.0","841504.0","22.3197985","114.22769495","2010-01-13 10:45:35"
"3WuK7QCTur","Sports Centres","Yau Oi Sports Centre","3 Hing On Lane, Tuen Mun","體育館","友愛體育館","屯門興安里3號","TUEN MUN","屯門","BASKETBALL COURTS,VOLLEYBALL COURTS,NETBALL COURTS,BADMINTON COURTS,SQUASH COURTS,TABLE TENNIS TABLES,ACTIVITY ROOMS,FITNESS ROOMS","籃球場,排球場,投球場,羽毛球場,壁球場,乒乓球檯,活動室,健身室","","","","","","","","","http://www.lcsd.gov.hk/en/facilities/facilitieslist/landsports/sportcentre.html","http://www.lcsd.gov.hk/tc/facilities/facilitieslist/landsports/sportcentre.html","827373.0","815149.0","22.38542805","113.97181716","2010-01-13 10:45:19"
"tyMJ15v7En","Sports Centres","Yuen Wo Road Sports Centre","4 Yuen Wo Road, Sha Tin","體育館","源禾路體育館","沙田源禾路4號","SHA TIN","沙田","BASKETBALL COURTS,VOLLEYBALL COURTS,NETBALL COURTS,BADMINTON COURTS,SQUASH COURTS,TABLE TENNIS TABLES,ACTIVITY ROOMS,FITNESS ROOMS","籃球場,排球場,投球場,羽毛球場,壁球場,乒乓球檯,活動室,健身室","N.A.","N.A.","N.A.","N.A.","N.A.","N.A.","N.A.","N.A.","http://www.lcsd.gov.hk/en/facilities/facilitieslist/landsports/sportcentre.html","http://www.lcsd.gov.hk/tc/facilities/facilitieslist/landsports/sportcentre.html","827080.0","837884.0","22.38293835","114.19256634","2010-01-13 10:45:10"
"RWVzP9IL4W","Sports Centres","Lockhart Road Sports Centre","10/F Lockhart Road Municipal Services Building, 225 Hennessy Road, Wanchai","體育館","駱克道體育館","灣仔軒尼詩道225號駱克道市政大廈11樓","WAN CHAI","灣仔","BASKETBALL COURTS,VOLLEYBALL COURTS,BADMINTON COURTS,SQUASH COURTS,TABLE TENNIS TABLES,ACTIVITY ROOMS,FITNESS ROOMS","籃球場,排球場,羽毛球場,壁球場,乒乓球檯,活動室,健身室","N.A.","N.A.","N.A.","N.A.","N.A.","N.A.","N.A.","N.A.","http://www.lcsd.gov.hk/en/facilities/facilitieslist/landsports/sportcentre.html","http://www.lcsd.gov.hk/tc/facilities/facilitieslist/landsports/sportcentre.html","815468.0","836118.0","22.27807599","114.17541888","2010-01-13 10:45:03"
"GTuuq81NTF","Sports Centres","Tai Wo Sports Centre","Podium Level, Tai Wo Shopping Centre, Tai Wo Estate, Tai Po","體育館","太和體育館","大埔太和邨太和商場平台","TAI PO","大埔","BASKETBALL COURTS,VOLLEYBALL COURTS,BADMINTON COURTS,SQUASH COURTS,TABLE TENNIS TABLES,ACTIVITY ROOMS,FITNESS ROOMS","籃球場,排球場,羽毛球場,壁球場,乒乓球檯,活動室,健身室","N.A.","N.A.","N.A.","N.A.","N.A.","N.A.","N.A.","N.A.","http://www.lcsd.gov.hk/en/facilities/facilitieslist/landsports/sportcentre.html","http://www.lcsd.gov.hk/tc/facilities/facilitieslist/landsports/sportcentre.html","834617.0","834591.0","22.45100107","114.16058217","2010-01-13 10:44:57"
"UcROxefkA9","Sports Centres","Lung Sum Avenue Sports Centre","155 Jockey Club Road, Sheung Shui","體育館","龍琛路體育館","上水馬會道155號","NORTH","北區","BASKETBALL COURTS,VOLLEYBALL COURTS,BADMINTON COURTS,SQUASH COURTS,TABLE TENNIS TABLES,ACTIVITY ROOMS,FITNESS ROOMS,DANCE ROOMS","籃球場,排球場,羽毛球場,壁球場,乒乓球檯,活動室,健身室,舞蹈室","N.A.","N.A.","N.A.","N.A.","N.A.","N.A.","N.A.","N.A.","http://www.lcsd.gov.hk/en/facilities/facilitieslist/landsports/sportcentre.html","http://www.lcsd.gov.hk/tc/facilities/facilitieslist/landsports/sportcentre.html","840595.0","831491.0","22.50497904","114.13044738","2010-01-13 10:44:38"
"mswrFy80b3","Sports Centres","Lai Chi Kok Park Sports Centre","1 Lai Wan Road, Lai Chi Kok, Kowloon","體育館","荔枝角公園體育館","荔枝角荔灣道1號","SHAM SHUI PO","深水埗","BASKETBALL COURTS,VOLLEYBALL COURTS,BADMINTON COURTS,SQUASH COURTS,TABLE TENNIS TABLES,ACTIVITY ROOMS,DANCE ROOMS","籃球場,排球場,羽毛球場,壁球場,乒乓球檯,活動室,舞蹈室","N.A.","N.A.","N.A.","N.A.","N.A.","N.A.","N.A.","N.A.","http://www.lcsd.gov.hk/en/facilities/facilitieslist/landsports/sportcentre.html","http://www.lcsd.gov.hk/tc/facilities/facilitieslist/landsports/sportcentre.html","822403.0","832285.0","22.34069864","114.13820963","2010-01-13 10:44:31"
"edmvHp5opH","Sports Centres","Quarry Bay Sports Centre","6/F & 7/F, Quarry Bay Municipal Services Building, 38 Quarry Bay Street, Quarry Bay","體育館","鰂魚涌體育館","鰂魚涌街38號","EASTERN","東區","BASKETBALL COURTS,VOLLEYBALL COURTS,BADMINTON COURTS,SQUASH COURTS,TABLE TENNIS TABLES,ACTIVITY ROOMS,FITNESS ROOMS,DANCE ROOMS","籃球場,排球場,羽毛球場,壁球場,乒乓球檯,活動室,健身室,舞蹈室","N.A.","N.A.","N.A.","N.A.","N.A.","N.A.","N.A.","N.A.","http://www.lcsd.gov.hk/en/facilities/facilitieslist/landsports/sportcentre.html","http://www.lcsd.gov.hk/tc/facilities/facilitieslist/landsports/sportcentre.html","816090.0","839866.0","22.28368928","114.21178755","2010-01-13 10:44:25"
"OiNS4XSkjd","Sports Centres","Tai Po Hui Sports Centre","6/F Multi Car-Park Building, Fu Shin Estate, 8 Heung Sze Wui Street, Tai Po","體育館","大埔墟體育館","大埔鄉事會街8號大埔綜合大樓6樓","TAI PO","大埔","BASKETBALL COURTS,VOLLEYBALL COURTS,BADMINTON COURTS,TABLE TENNIS TABLES,ACTIVITY ROOMS,FITNESS ROOMS,DANCE ROOMS,CHILDREN'S PLAY ROOMS","籃球場,排球場,羽毛球場,乒乓球檯,活動室,健身室,舞蹈室,兒童遊戲室","N.A.","N.A.","N.A.","N.A.","N.A.","N.A.","N.A.","N.A.","http://www.lcsd.gov.hk/en/facilities/facilitieslist/landsports/sportcentre.html","http://www.lcsd.gov.hk/tc/facilities/facilitieslist/landsports/sportcentre.html","834077.0","835208.0","22.44612511","114.16657675","2010-01-13 10:44:17"
"xQJ66ObwoT","Sports Centres","Fa Yuen Street Sports Centre","13/F Fa Yuen Street Municipal Services Building, 123A Fa Yuen Street, Mong Kok","體育館","花園街體育館","旺角花園街123A號花園街市政大廈13樓","YAU TSIM MONG","油尖旺","BASKETBALL COURTS,VOLLEYBALL COURTS,BADMINTON COURTS,SQUASH COURTS,TABLE TENNIS TABLES,ACTIVITY ROOMS,FITNESS ROOMS,DANCE ROOMS","籃球場,排球場,羽毛球場,壁球場,乒乓球檯,活動室,健身室,舞蹈室","N.A.","N.A.","N.A.","N.A.","N.A.","N.A.","N.A.","N.A.","http://www.lcsd.gov.hk/en/facilities/facilitieslist/landsports/sportcentre.html","http://www.lcsd.gov.hk/tc/facilities/facilitieslist/landsports/sportcentre.html","820197.0","835632.0","22.32078166","114.1707013","2010-01-13 10:44:07"
"vZEY1z8K27","Sports Centres","Fu Shin Sports Centre","Multi Car-Park Building, Fu Shin Estate, Tai Po","體育館","富善體育館","大埔富善邨多層停車場","TAI PO","大埔","BASKETBALL COURTS,VOLLEYBALL COURTS,BADMINTON COURTS,TABLE TENNIS TABLES,ACTIVITY ROOMS,FITNESS ROOMS,DANCE ROOMS","籃球場,排球場,羽毛球場,乒乓球檯,活動室,健身室,舞蹈室","N.A.","N.A.","N.A.","N.A.","N.A.","N.A.","N.A.","N.A.","http://www.lcsd.gov.hk/en/facilities/facilitieslist/landsports/sportcentre.html","http://www.lcsd.gov.hk/tc/facilities/facilitieslist/landsports/sportcentre.html","834936.0","835984.0","22.45388257","114.17411525","2010-01-13 10:44:01"
"VfRzQDZfZm","Sports Centres","Hung Hom Municipal Services Building Sports Centre","3-5/F Hung Hom Municipal Services Building, 11 Ma Tau Wai Road, Hung Hom, Kowloon","體育館","紅磡市政大廈體育館","九龍紅磡馬頭圍道11號紅磡市政大廈3-5樓","KOWLOON CITY","九龍城","BASKETBALL COURTS,VOLLEYBALL COURTS,BADMINTON COURTS,SQUASH COURTS,TABLE TENNIS TABLES,ACTIVITY ROOMS,DANCE ROOMS,CHILDREN'S PLAY ROOMS","籃球場,排球場,羽毛球場,壁球場,乒乓球檯,活動室,舞蹈室,兒童遊戲室","N.A.","N.A.","N.A.","N.A.","N.A.","N.A.","N.A.","N.A.","http://www.lcsd.gov.hk/en/facilities/facilitieslist/landsports/sportcentre.html","http://www.lcsd.gov.hk/tc/facilities/facilitieslist/landsports/sportcentre.html","818701.0","837348.0","22.30727166","114.1873559","2010-01-13 10:43:54"
"ZSyCSrj3cj","Sports Centres","Pei Ho Street Sports Centre","5/F Pei Ho Street Municipal Services Building, 333 Ki Lung Street, Sham Shui Po","體育館","北河街體育館","深水埗基隆街333號北河街市政大廈5字樓","SHAM SHUI PO","深水埗","BASKETBALL COURTS,VOLLEYBALL COURTS,BADMINTON COURTS,SQUASH COURTS,TABLE TENNIS TABLES,ACTIVITY ROOMS,FITNESS ROOMS,DANCE ROOMS,CHILDREN'S PLAY ROOMS","籃球場,排球場,羽毛球場,壁球場,乒乓球檯,活動室,健身室,舞蹈室,兒童遊戲室","N.A.","N.A.","N.A.","N.A.","N.A.","N.A.","N.A.","N.A.","http://www.lcsd.gov.hk/en/facilities/facilitieslist/landsports/sportcentre.html","http://www.lcsd.gov.hk/tc/facilities/facilitieslist/landsports/sportcentre.html","821134.0","834646.0","22.32924268","114.16113018","2010-01-13 10:43:47"
"QoeL48TDSd","Sports Centres","Choi Hung Road Sports Centre","Sheung Hei Street, Wong Tai Sin","體育館","彩虹道體育館","黃大仙雙喜街","WONG TAI SIN","黃大仙","BASKETBALL COURTS,VOLLEYBALL COURTS,BADMINTON COURTS,SQUASH COURTS,TABLE TENNIS TABLES,ACTIVITY ROOMS,FITNESS ROOMS","籃球場,排球場,羽毛球場,壁球場,乒乓球檯,活動室,健身室","N.A.","N.A.","N.A.","N.A.","N.A.","N.A.","N.A.","N.A.","http://www.lcsd.gov.hk/en/facilities/facilitieslist/landsports/sportcentre.html","http://www.lcsd.gov.hk/tc/facilities/facilitieslist/landsports/sportcentre.html","822007.0","838285.0","22.33712595","114.19645378","2010-01-13 10:43:33"
"135zl6wZho","Sports Centres","Wong Nai Chung Sports Centre","4/F,Wong Nai Chung Municipal Services Building, 2 Yuk Sau Street, Happy Valley","體育館","黃泥涌體育館","跑馬地毓秀街2號黃泥涌市政大廈4字樓","WAN CHAI","灣仔","BASKETBALL COURTS,VOLLEYBALL COURTS,BADMINTON COURTS,SQUASH COURTS,TABLE TENNIS TABLES,ACTIVITY ROOMS,CHILDREN'S PLAY ROOMS","籃球場,排球場,羽毛球場,壁球場,乒乓球檯,活動室,兒童遊戲室","N.A.","N.A.","N.A.","N.A.","N.A.","N.A.","N.A.","N.A.","http://www.lcsd.gov.hk/en/facilities/facilitieslist/landsports/sportcentre.html","http://www.lcsd.gov.hk/tc/facilities/facilitieslist/landsports/sportcentre.html","814457.0","837183.0","22.26894576","114.18575212","2010-01-13 10:43:18"
"aO5EydtbDY","Sports Centres","Fung Kam Street Sports Centre","20 Fung Yau Street North, Yuen Long","體育館","鳳琴街體育館","元朗攸北街二十號","YUEN LONG","元朗","BASKETBALL COURTS,VOLLEYBALL COURTS,BADMINTON COURTS,TABLE TENNIS TABLES,ACTIVITY ROOMS,FITNESS ROOMS","籃球場,排球場,羽毛球場,乒乓球檯,活動室,健身室","N.A.","N.A.","N.A.","N.A.","N.A.","N.A.","N.A.","N.A.","http://www.lcsd.gov.hk/en/facilities/facilitieslist/landsports/sportcentre.html","http://www.lcsd.gov.hk/tc/facilities/facilitieslist/landsports/sportcentre.html","833745.0","821461.0","22.44306328","114.03303116","2010-01-13 10:43:12"
"HEqmpuhKek","Sports Centres","Osman Ramju Sadick Memorial Sports Centre","176 Hing Fong Road, Kwai Chung","體育館","林士德體育館","葵涌興芳路176號","KWAI TSING","葵青","BASKETBALL COURTS,VOLLEYBALL COURTS,BADMINTON COURTS,TABLE TENNIS TABLES,ACTIVITY ROOMS,FITNESS ROOMS,DANCE ROOMS","籃球場,排球場,羽毛球場,乒乓球檯,活動室,健身室,舞蹈室","","","","","","","","","http://www.lcsd.gov.hk/en/facilities/facilitieslist/landsports/sportcentre.html","http://www.lcsd.gov.hk/tc/facilities/facilitieslist/landsports/sportcentre.html","824665.0","831391.0","22.36112346","114.12952428","2010-01-13 10:43:06"
"v0sGoqLf5C","Sports Centres","Mei Lam Sports Centre","Mei Lam Estate Phase III, Tai Wai, Sha Tin","體育館","美林體育館","沙田大圍美林邨第三期","SHA TIN","沙田","BASKETBALL COURTS,VOLLEYBALL COURTS,BADMINTON COURTS,SQUASH COURTS,TABLE TENNIS TABLES,ACTIVITY ROOMS,FITNESS ROOMS,DANCE ROOMS","籃球場,排球場,羽毛球場,壁球場,乒乓球檯,活動室,健身室,舞蹈室","N.A.","N.A.","N.A.","N.A.","N.A.","N.A.","N.A.","N.A.","http://www.lcsd.gov.hk/en/facilities/facilitieslist/landsports/sportcentre.html","http://www.lcsd.gov.hk/tc/facilities/facilitieslist/landsports/sportcentre.html","826653.0","836126.0","22.37908307","114.17549554","2010-01-13 10:42:59"
"2z7MIIefEy","Sports Centres","Fat Kwong Street Sports Centre","18 Good Shepherd Street, Ho Man Tin","體育館","佛光街體育館","何文田牧愛街18號","KOWLOON CITY","九龍城","BASKETBALL COURTS,VOLLEYBALL COURTS,BADMINTON COURTS,SQUASH COURTS,TABLE TENNIS TABLES,ACTIVITY ROOMS,FITNESS ROOMS","籃球場,排球場,羽毛球場,壁球場,乒乓球檯,活動室,健身室","N.A.","N.A.","N.A.","N.A.","N.A.","N.A.","N.A.","N.A.","http://www.lcsd.gov.hk/en/facilities/facilitieslist/landsports/sportcentre.html","http://www.lcsd.gov.hk/tc/facilities/facilitieslist/landsports/sportcentre.html","819538.0","836704.0","22.31483056","114.18110602","2010-01-13 10:42:52"
"XxdrxTnbR3","Sports Centres","Leung Tin Sports Centre","4/F, Carpark Building, Tin King Estate, Tuen Mun","體育館","良田體育館","屯門田景邨停車場四字褸","TUEN MUN","屯門","BASKETBALL COURTS,VOLLEYBALL COURTS,BADMINTON COURTS,SQUASH COURTS,TABLE TENNIS TABLES,ACTIVITY ROOMS,FITNESS ROOMS","籃球場,排球場,羽毛球場,壁球場,乒乓球檯,活動室,健身室","N.A.","N.A.","N.A.","N.A.","N.A.","N.A.","N.A.","N.A.","http://www.lcsd.gov.hk/en/facilities/facilitieslist/landsports/sportcentre.html","http://www.lcsd.gov.hk/tc/facilities/facilitieslist/landsports/sportcentre.html","829716.0","814461.0","22.40660484","113.96508485","2010-01-13 10:42:44"
"fqPlVbs4pZ","Sports Centres","Tai Po Sports Centre","13 Ting Tai Road, Tai Po","體育館","大埔體育館","大埔汀太路13號","TAI PO","大埔","BASKETBALL COURTS,VOLLEYBALL COURTS,BADMINTON COURTS,SQUASH COURTS,TABLE TENNIS TABLES,ACTIVITY ROOMS,FITNESS ROOMS,DANCE ROOMS","籃球場,排球場,羽毛球場,壁球場,乒乓球檯,活動室,健身室,舞蹈室","N.A.","N.A.","N.A.","N.A.","N.A.","N.A.","N.A.","N.A.","http://www.lcsd.gov.hk/en/facilities/facilitieslist/landsports/sportcentre.html","http://www.lcsd.gov.hk/tc/facilities/facilitieslist/landsports/sportcentre.html","835097.0","835035.0","22.45533606","114.1648953","2010-01-13 10:42:38"
"oyzwPfmVAm","Sports Centres","Kowloon City Sports Centre","3/F, Kln City Municipal Services Building, 100 Nga Tsin Wai Road, Kowloon City","體育館","九龍城體育館","九龍城衙前圍道100號市政大廈三樓","KOWLOON CITY","九龍城","BASKETBALL COURTS,VOLLEYBALL COURTS,BADMINTON COURTS,SQUASH COURTS,TABLE TENNIS TABLES,ACTIVITY ROOMS","籃球場,排球場,羽毛球場,壁球場,乒乓球檯,活動室","N.A.","N.A.","N.A.","N.A.","N.A.","N.A.","N.A.","N.A.","http://www.lcsd.gov.hk/en/facilities/facilitieslist/landsports/sportcentre.html","http://www.lcsd.gov.hk/tc/facilities/facilitieslist/landsports/sportcentre.html","821178.0","837506.0","22.32964034","114.18889123","2010-01-13 10:42:33"
"mpiOqHLiP9","Sports Centres","Chuk Yuen Sports Centre","Chuk Yuen North Estate, Chuk Yuen Road, Wong Tai Sin","體育館","竹園體育館","黃大仙竹園道竹園北村","WONG TAI SIN","黃大仙","BASKETBALL COURTS,VOLLEYBALL COURTS,BADMINTON COURTS,SQUASH COURTS,TABLE TENNIS TABLES,ACTIVITY ROOMS,FITNESS ROOMS","籃球場,排球場,羽毛球場,壁球場,乒乓球檯,活動室,健身室","N.A.","N.A.","N.A.","N.A.","N.A.","N.A.","N.A.","N.A.","http://www.lcsd.gov.hk/en/facilities/facilitieslist/landsports/sportcentre.html","http://www.lcsd.gov.hk/tc/facilities/facilitieslist/landsports/sportcentre.html","822937.0","837982.0","22.34552471","114.1935135","2010-01-13 10:42:27"
"Ut6jiYpSXV","Sports Centres","Tin Ping Sports Centre","3/F., Tin Ping Estate Shopping Centre, Tin Ping Estate, North","體育館","天平體育館","上水天平邨天平購物中心3樓","NORTH","北區","BASKETBALL COURTS,VOLLEYBALL COURTS,BADMINTON COURTS,SQUASH COURTS,TABLE TENNIS TABLES,ACTIVITY ROOMS,FITNESS ROOMS","籃球場,排球場,羽毛球場,壁球場,乒乓球檯,活動室,健身室","N.A.","N.A.","N.A.","N.A.","N.A.","N.A.","N.A.","N.A.","http://www.lcsd.gov.hk/en/facilities/facilitieslist/landsports/sportcentre.html","http://www.lcsd.gov.hk/tc/facilities/facilitieslist/landsports/sportcentre.html","840411.0","831820.0","22.50331834","114.1336454","2010-01-13 10:42:16"
"1m8aWUApNi","Sports Centres","Tsuen Wan West Sports Centre","68 Hoi On Road, Tsuen Wan","體育館","荃灣西約體育館","荃灣海安路68號","TSUEN WAN","荃灣","BASKETBALL COURTS,VOLLEYBALL COURTS,BADMINTON COURTS,SQUASH COURTS,TABLE TENNIS TABLES,ACTIVITY ROOMS,FITNESS ROOMS","籃球場,排球場,羽毛球場,壁球場,乒乓球檯,活動室,健身室","N.A.","N.A.","N.A.","N.A.","N.A.","N.A.","N.A.","N.A.","http://www.lcsd.gov.hk/en/facilities/facilitieslist/landsports/sportcentre.html","http://www.lcsd.gov.hk/tc/facilities/facilitieslist/landsports/sportcentre.html","825702.0","828403.0","22.37047704","114.10050913","2010-01-13 10:41:55"
"9r9fhG3Vwe","Sports Centres","Wo Hing Sports Centre","8 Wo Ming Lane, Fanling","體育館","和興體育館","粉嶺和明里8號","NORTH","北區","BASKETBALL COURTS,VOLLEYBALL COURTS,BADMINTON COURTS,TENNIS COURTS,ACTIVITY ROOMS,FITNESS ROOMS,SQUASH COURTS,TABLE TENNIS TABLES,AMERICAN POOL TABLES","籃球場,排球場,羽毛球場,網球場,活動室,健身室,壁球場,乒乓球檯,美式桌球檯","N.A.","N.A.","N.A.","N.A.","N.A.","N.A.","N.A.","N.A.","http://www.lcsd.gov.hk/en/facilities/facilitieslist/landsports/sportcentre.html","http://www.lcsd.gov.hk/tc/facilities/facilitieslist/landsports/sportcentre.html","838355.0","832796.0","22.48475411","114.1431354","2010-01-13 10:41:45"
"rOCazl5GqH","Sports Centres","Ma On Shan Sports Centre","14 On Chun Street, Ma On Shan, Shatin","體育館","馬鞍山體育館","馬鞍山鞍駿街14號","SHA TIN","沙田","BASKETBALL COURTS,VOLLEYBALL COURTS,BADMINTON COURTS,HANDBALL COURTS,TABLE TENNIS TABLES,FITNESS ROOMS,DANCE ROOMS,ACTIVITY ROOMS,CHILDREN'S PLAY ROOMS","籃球場,排球場,羽毛球場,手球場,乒乓球檯,健身室,舞蹈室,活動室,兒童遊戲室","N.A.","N.A.","N.A.","N.A.","N.A.","N.A.","N.A.","N.A.","http://www.lcsd.gov.hk/en/facilities/facilitieslist/landsports/sportcentre.html","http://www.lcsd.gov.hk/tc/facilities/facilitieslist/landsports/sportcentre.html","831852.0","841692.0","22.42602405","114.22955967","2010-01-13 10:41:39"
"Ks0Zeqlua7","Sports Centres","Island East Sports Centre","52 Lei King Road, Sai Wan Ho","體育館","港島東體育館","西灣河鯉景道52號","EASTERN","東區","BASKETBALL COURTS,VOLLEYBALL COURTS,BADMINTON COURTS,DANCE ROOMS,ACTIVITY ROOMS,TABLE TENNIS TABLES,GOLF FACILITIES,FITNESS ROOMS,CHILDREN'S PLAY ROOMS,BOWLING GREENS,SWIMMING POOLS","籃球場,排球場,羽毛球場,舞蹈室,活動室,乒乓球檯,高爾夫球設施,健身室,兒童遊戲室,草地滾球場,游泳池","N.A.","N.A.","N.A.","N.A.","N.A.","N.A.","N.A.","N.A.","http://www.lcsd.gov.hk/en/facilities/facilitieslist/landsports/sportcentre.html","http://www.lcsd.gov.hk/tc/facilities/facilitieslist/landsports/sportcentre.html","816205.0","840948.0","22.28472521","114.22228707","2010-01-13 10:41:31"
"JwMz81ecy1","Sports Centres","Peng Chau Sports Centre","Peng Chau Municipal Services Building, 6 Po Peng Street, Peng Chau","體育館","坪洲體育館","坪洲寶坪街6號坪洲市政大廈","ISLANDS","離島","BASKETBALL COURTS,VOLLEYBALL COURTS,BADMINTON COURTS,SQUASH COURTS,ACTIVITY ROOMS,FITNESS ROOMS","籃球場,排球場,羽毛球場,壁球場,活動室,健身室","N.A.","N.A.","N.A.","N.A.","N.A.","N.A.","N.A.","N.A.","http://www.lcsd.gov.hk/en/facilities/facilitieslist/landsports/sportcentre.html","http://www.lcsd.gov.hk/tc/facilities/facilitieslist/landsports/sportcentre.html","816229.0","821962.0","22.28488899","114.03805497","2010-01-13 10:41:24"
"NRKmwY0FTv","Sports Centres","Yeung Uk Road Sports Centre","4/F Yeung Uk Road Municipal Services Building, 45 Yeung Uk Road, Tsuen Wan","體育館","楊屋道體育館","荃灣楊屋道45號楊屋道市政大廈四樓","TSUEN WAN","荃灣","BASKETBALL COURTS,VOLLEYBALL COURTS,BADMINTON COURTS,SQUASH COURTS,TABLE TENNIS TABLES,ACTIVITY ROOMS,FITNESS ROOMS","籃球場,排球場,羽毛球場,壁球場,乒乓球檯,活動室,健身室","N.A.","N.A.","N.A.","N.A.","N.A.","N.A.","N.A.","N.A.","http://www.lcsd.gov.hk/en/facilities/facilitieslist/landsports/sportcentre.html","http://www.lcsd.gov.hk/tc/facilities/facilitieslist/landsports/sportcentre.html","825537.0","829846.0","22.36899301","114.1145206","2010-01-13 10:41:10"
"L1BPUzftim","Sports Centres","Ngau Chi Wan Sports Centre","1/F, Ngau Chi Wan Municipal Services Building, 11 Clear Water Bay Road, Kowloon","體育館","牛池灣體育館","九龍清水灣道11號牛池灣市政大廈1樓","WONG TAI SIN","黃大仙","BASKETBALL COURTS,VOLLEYBALL COURTS,BADMINTON COURTS,TABLE TENNIS TABLES","籃球場,排球場,羽毛球場,乒乓球檯","N.A.","N.A.","N.A.","N.A.","N.A.","N.A.","N.A.","N.A.","http://www.lcsd.gov.hk/en/facilities/facilitieslist/landsports/sportcentre.html","http://www.lcsd.gov.hk/tc/facilities/facilitieslist/landsports/sportcentre.html","821722.0","839643.0","22.3345501","114.20963555","2010-01-13 10:40:56"
"ywCCmz58SW","Sports Centres","Morse Park Sports Centre","Fung Mo Street, WTS","體育館","摩士公園體育館","黃大仙鳳舞街40號","WONG TAI SIN","黃大仙","BASKETBALL COURTS,VOLLEYBALL COURTS,BADMINTON COURTS,TABLE TENNIS TABLES","籃球場,排球場,羽毛球場,乒乓球檯","N.A.","N.A.","N.A.","N.A.","N.A.","N.A.","N.A.","N.A.","http://www.lcsd.gov.hk/en/facilities/facilitieslist/landsports/sportcentre.html","http://www.lcsd.gov.hk/tc/facilities/facilitieslist/landsports/sportcentre.html","822138.0","837633.0","22.33830959","114.1901248","2010-01-13 10:40:50"
"oE9lBkYmBS","Sports Centres","Boundary Street Sports Centre No. 1","200 Sai Yee Street, Mong Kok","體育館","界限街一號體育館","太子洗衣街200號","YAU TSIM MONG","油尖旺","BASKETBALL COURTS,VOLLEYBALL COURTS,BADMINTON COURTS","籃球場,排球場,羽毛球場","N.A.","N.A.","N.A.","N.A.","N.A.","N.A.","N.A.","N.A.","http://www.lcsd.gov.hk/en/facilities/facilitieslist/landsports/sportcentre.html","http://www.lcsd.gov.hk/tc/facilities/facilitieslist/landsports/sportcentre.html","820730.0","835654.0","22.32559497","114.17091463","2010-01-13 10:40:35"
"EdpKzCZswi","Sports Centres","Boundary Street Sports Centre No. 2","200 Sai Yee Street, Mong Kok","體育館","界限街二號體育館","太子洗衣街200號","YAU TSIM MONG","油尖旺","BASKETBALL COURTS,VOLLEYBALL COURTS,BADMINTON COURTS,SQUASH COURTS,TABLE TENNIS TABLES,ACTIVITY ROOMS","籃球場,排球場,羽毛球場,壁球場,乒乓球檯,活動室","N.A.","N.A.","N.A.","N.A.","N.A.","N.A.","N.A.","N.A.","http://www.lcsd.gov.hk/en/facilities/facilitieslist/landsports/sportcentre.html","http://www.lcsd.gov.hk/tc/facilities/facilitieslist/landsports/sportcentre.html","820784.0","835614.0","22.32608261","114.17052636","2010-01-13 10:40:29"
"6FcFsDbhcX","Sports Centres","Shek Kip Mei Park Sports Centre","290 Nam Cheong Street, Shek Kip Mei","體育館","石硤尾公園體育館","石硤尾南昌街290號","SHAM SHUI PO","深水埗","BASKETBALL COURTS,VOLLEYBALL COURTS,NETBALL COURTS,HANDBALL COURTS,BADMINTON COURTS,ACTIVITY ROOMS,DANCE ROOMS,FITNESS ROOMS,CHILDREN'S PLAY ROOMS,SPORTS CLIMBING FACILITIES","籃球場,排球場,投球場,手球場,羽毛球場,活動室,舞蹈室,健身室,兒童遊戲室,運動攀登設施","N.A.","N.A.","N.A.","N.A.","N.A.","N.A.","N.A.","N.A.","http://www.lcsd.gov.hk/en/facilities/facilitieslist/landsports/sportcentre.html","http://www.lcsd.gov.hk/tc/facilities/facilitieslist/landsports/sportcentre.html","822025.0","835556.0","22.33728954","114.16996283","2010-01-13 10:40:21"
"LeGOjuJhyu","Sports Centres","Kai Tak East Sports Centre","30 Luk Hop Street, San Po Kong","體育館","東啟德體育館","新蒲崗六合街30號","WONG TAI SIN","黃大仙","BASKETBALL COURTS,VOLLEYBALL COURTS,BADMINTON COURTS,SQUASH COURTS,TABLE TENNIS TABLES,ACTIVITY ROOMS,SPORTS CLIMBING FACILITIES","籃球場,排球場,羽毛球場,壁球場,乒乓球檯,活動室,運動攀登設施","N.A.","N.A.","N.A.","N.A.","N.A.","N.A.","N.A.","N.A.","http://www.lcsd.gov.hk/en/facilities/facilitieslist/landsports/sportcentre.html","http://www.lcsd.gov.hk/tc/facilities/facilitieslist/landsports/sportcentre.html","821877.0","838708.0","22.33595142","114.20055972","2010-01-13 10:40:15"
"jn4MU7P4XN","Sports Centres","Tai Kok Tsui Sports Centre","5-7/F., Tai Kok Tsui Municipal Services Building, 63 Fuk Tsun Street, Tai Kok Tsui","體育館","大角咀體育館","九龍大角咀福全街63號大角咀市政大廈五樓至七樓","YAU TSIM MONG","油尖旺","BASKETBALL COURTS,VOLLEYBALL COURTS,BADMINTON COURTS,SPORTS CLIMBING FACILITIES,FITNESS ROOMS,CHILDREN'S PLAY ROOMS,TABLE TENNIS TABLES,ACTIVITY ROOMS","籃球場,排球場,羽毛球場,運動攀登設施,健身室,兒童遊戲室,乒乓球檯,活動室","N.A.","N.A.","N.A.","N.A.","N.A.","N.A.","N.A.","N.A.","http://www.lcsd.gov.hk/en/facilities/facilitieslist/landsports/sportcentre.html","http://www.lcsd.gov.hk/tc/facilities/facilitieslist/landsports/sportcentre.html","820319.0","834817.0","22.3218829","114.16279075","2010-01-13 10:39:59"
"50LZ5tO27J","Sports Centres","Lei Yue Mun Sports Centre","2/F to 5/F of Lei Yue Mun Municipal Services Building, Yau Tong, Kowloon","體育館","鯉魚門體育館","九龍油塘鯉魚門市政大廈二樓至五樓","KWUN TONG","觀塘","BASKETBALL COURTS,VOLLEYBALL COURTS,BADMINTON COURTS,ACTIVITY ROOMS,FITNESS ROOMS,SPORTS CLIMBING FACILITIES,SANSHOU TRAINING HALL,TABLE TENNIS TABLES,AMERICAN POOL TABLES,SQUASH COURTS,CHILDREN'S PLAY ROOMS","籃球場,排球場,羽毛球場,活動室,健身室,運動攀登設施,散手訓練場,乒乓球檯,美式桌球檯,壁球場,兒童遊戲室","N.A.","N.A.","N.A.","N.A.","N.A.","N.A.","N.A.","N.A.","http://www.lcsd.gov.hk/en/facilities/facilitieslist/landsports/sportcentre.html","http://www.lcsd.gov.hk/tc/facilities/facilitieslist/landsports/sportcentre.html","817018.0","842637.0","22.29206169","114.23867963","2010-01-13 10:39:46"
"EHRIsWEa6z","Sports Centres","Kwun Chung Sports Centre","5/F - 7/F, 17 Bowring Street, Jordon","體育館","官涌體育館","佐敦寶靈街17號官涌市政大廈五樓至七樓","YAU TSIM MONG","油尖旺","BASKETBALL COURTS,VOLLEYBALL COURTS,BADMINTON COURTS,SQUASH COURTS,TABLE TENNIS TABLES,ACTIVITY ROOMS,FITNESS ROOMS,DANCE ROOMS","籃球場,排球場,羽毛球場,壁球場,乒乓球檯,活動室,健身室,舞蹈室","N.A.","N.A.","N.A.","N.A.","N.A.","N.A.","N.A.","N.A.","http://www.lcsd.gov.hk/en/facilities/facilitieslist/landsports/sportcentre.html","http://www.lcsd.gov.hk/tc/facilities/facilitieslist/landsports/sportcentre.html","818387.0","835380.0","22.30443616","114.16825637","2010-01-13 10:39:37"
"kUp9po8NdI","Sports Centres","Shun Lee Tsuen Sports Centre","Shun Lee Tsuen Road, Kwun Tong","體育館","順利邨體育館","觀塘順利邨道","KWUN TONG","觀塘","BASKETBALL COURTS,NETBALL COURTS,BADMINTON COURTS,GYMNASTICS TRAINING HALL,FITNESS ROOMS,DANCE ROOMS,TABLE TENNIS TABLES,SQUASH COURTS,ACTIVITY ROOMS,GOLF FACILITIES,SPORTS CLIMBING FACILITIES,CHILDREN'S PLAY ROOMS","籃球場,投球場,羽毛球場,體操訓練場,健身室,舞蹈室,乒乓球檯,壁球場,活動室,高爾夫球設施,運動攀登設施,兒童遊戲室","N.A.","N.A.","N.A.","N.A.","N.A.","N.A.","N.A.","N.A.","http://www.lcsd.gov.hk/en/facilities/facilitieslist/landsports/sportcentre.html","http://www.lcsd.gov.hk/tc/facilities/facilitieslist/landsports/sportcentre.html","821184.0","841271.0","22.32968768","114.22543688","2010-01-13 10:39:29"
"HQm0TPc2QU","Sports Centres","Ngau Tau Kok Road Sports Centre","3/F-4/F Ngau Tau Kok Municipal Services Building, 183 Ngau Tau Kok Road, Ngau Tau Kok","體育館","牛頭角道體育館","觀塘牛頭角道牛頭角市政大廈三至四樓","KWUN TONG","觀塘","BASKETBALL COURTS,VOLLEYBALL COURTS,BADMINTON COURTS,TABLE TENNIS TABLES,ACTIVITY ROOMS,FITNESS ROOMS","籃球場,排球場,羽毛球場,乒乓球檯,活動室,健身室","","","","","","","","","http://www.lcsd.gov.hk/en/facilities/facilitieslist/landsports/sportcentre.html","http://www.lcsd.gov.hk/tc/facilities/facilitieslist/landsports/sportcentre.html","820275.0","840338.0","22.32148134","114.21637824","2010-01-13 10:39:19"
"Y4Fq1FJuTb","Sports Centres","The Jockey Club Tuen Mun Butterfly Beach Sports Centre","Wu Shan Road, Tuen Mun","體育館","賽馬會屯門蝴蝶灣體育館","屯門湖山道","TUEN MUN","屯門","BASKETBALL COURTS,VOLLEYBALL COURTS,BADMINTON COURTS,SQUASH COURTS,TABLE TENNIS TABLES,ACTIVITY ROOMS,FITNESS ROOMS,DANCE ROOMS","籃球場,排球場,羽毛球場,壁球場,乒乓球檯,活動室,健身室,舞蹈室","","","","","","","","","http://www.lcsd.gov.hk/en/facilities/facilitieslist/landsports/sportcentre.html","http://www.lcsd.gov.hk/tc/facilities/facilitieslist/landsports/sportcentre.html","826625.0","814417.0","22.37869116","113.96469987","2010-01-13 10:39:07"
"oJ7gIWYsqo","Sports Centres","Tseung Kwan O Sports Centre","9 Wan Lung Road, Tseung Kwan O, Sai Kung","體育館","將軍澳體育館","西貢將軍澳運隆路9號","SAI KUNG","西貢","BASKETBALL COURTS,VOLLEYBALL COURTS,BADMINTON COURTS,SQUASH COURTS,TABLE TENNIS TABLES,ACTIVITY ROOMS,FITNESS ROOMS","籃球場,排球場,羽毛球場,壁球場,乒乓球檯,活動室,健身室","","","","","","","","","http://www.lcsd.gov.hk/en/facilities/facilitieslist/landsports/sportcentre.html","http://www.lcsd.gov.hk/tc/facilities/facilitieslist/landsports/sportcentre.html","819792.0","844794.0","22.31710325","114.25962608","2010-01-13 10:38:43"
"IKnkK09azu","Sports Centres","Kowloon Bay Sports Centre","15 Kai Lok Street, Kowloon Bay","體育館","九龍灣體育館","九龍灣啟樂街15號","KWUN TONG","觀塘","BASKETBALL COURTS,VOLLEYBALL COURTS,BADMINTON COURTS,SQUASH COURTS,TABLE TENNIS TABLES,ACTIVITY ROOMS,DANCE ROOMS","籃球場,排球場,羽毛球場,壁球場,乒乓球檯,活動室,舞蹈室","","","","","","","","","http://www.lcsd.gov.hk/en/facilities/facilitieslist/landsports/sportcentre.html","http://www.lcsd.gov.hk/tc/facilities/facilitieslist/landsports/sportcentre.html","820871.0","839808.0","22.32686474","114.21123532","2010-01-13 10:23:22"
"X8hWihu6IQ","Sports Centres","Fung Shue Wo Sports Centre","10 Fung Shue Wo Road, Tsing Yi Estate, Phase II, Tsing Yi","體育館","楓樹窩體育館","青衣楓樹窩路10號青衣邨第二期","KWAI TSING","葵青","BASKETBALL COURTS, VOLLEYBALL COURTS, BADMINTON COURTS, ACTIVITY ROOMS, FITNESS ROOMS","籃球場,排球場,羽毛球場,活動室,健身室","","","","","","","","","http://www.lcsd.gov.hk/en/facilities/facilitieslist/landsports/sportcentre.html","http://www.lcsd.gov.hk/tc/facilities/facilitieslist/landsports/sportcentre.html","824041.0","828627.0","22.35551446","114.10271139","2010-01-13 10:23:05"
"nnTsvTWY08","Sports Centres","Chun Wah Road Sports Centre","Top Floor, Lok Nga Court Carpark, 50 Chun Wah Road, Ngau Tau Kok, Kwun Tong","體育館","振華道體育館","觀塘牛頭角振華道50號樂雅苑停車場頂樓","KWUN TONG","觀塘","BASKETBALL COURTS,VOLLEYBALL COURTS,BADMINTON COURTS,TABLE TENNIS TABLES,ACTIVITY ROOMS,DANCE ROOMS","籃球場,排球場,羽毛球場,乒乓球檯,活動室,舞蹈室","N.A.","N.A.","N.A.","N.A.","N.A.","N.A.","N.A.","N.A.","http://www.lcsd.gov.hk/en/facilities/facilitieslist/landsports/sportcentre.html","http://www.lcsd.gov.hk/tc/facilities/facilitieslist/landsports/sportcentre.html","820385.0","840764.0","22.32247364","114.22051335","2010-01-13 10:22:37"
